{
  "type": "FeatureCollection",
  "features": [
    {
      "type": "Feature",
      "properties": {
        "norad_id": 34141,
        "name": "COSMOS 2251 DEB",
        "group": "cosmos-2251-debris",
        "lat": 61.35943139591259,
        "lon": 64.7728147822862,
        "alt_km": 702.0567267162023,
        "timestamp": "2025-12-10T11:33:53.777856+00:00",
        "meta_object_name": "COSMOS 2251 DEB",
        "meta_object_id": "1993-036LN",
        "meta_epoch": "2025-12-09T05:43:21.495072",
        "meta_mean_motion": 14.4918046,
        "meta_eccentricity": 0.0047664,
        "meta_inclination": 74.0109,
        "meta_ra_of_asc_node": 35.4385,
        "meta_arg_of_pericenter": 122.8828,
        "meta_mean_anomaly": 299.0857,
        "meta_ephemeris_type": 0,
        "meta_classification_type": "U",
        "meta_norad_cat_id": 34141,
        "meta_element_set_no": 999,
        "meta_rev_at_epoch": 87643,
        "meta_bstar": 0.002117,
        "meta_mean_motion_dot": 8.158e-05,
        "meta_mean_motion_ddot": 0,
        "tle_line1": "1 34141U 93036LN  25343.23844323  .00008158  00000+0  21170-2 0  9994",
        "tle_line2": "2 34141  74.0109  35.4385 0047664 122.8828 299.0857 14.49180460876437"
      },
      "geometry": {
        "type": "Point",
        "coordinates": [
          64.7728147822862,
          61.35943139591259
        ]
      }
    },
    {
      "type": "Feature",
      "properties": {
        "norad_id": 34270,
        "name": "COSMOS 2251 DEB",
        "group": "cosmos-2251-debris",
        "lat": -67.38585804263325,
        "lon": 174.47469191601328,
        "alt_km": 712.4991619961502,
        "timestamp": "2025-12-10T11:33:53.777865+00:00",
        "meta_object_name": "COSMOS 2251 DEB",
        "meta_object_id": "1993-036LQ",
        "meta_epoch": "2025-12-10T00:34:53.257728",
        "meta_mean_motion": 14.6513016,
        "meta_eccentricity": 0.0047781,
        "meta_inclination": 74.0117,
        "meta_ra_of_asc_node": 311.8597,
        "meta_arg_of_pericenter": 105.4235,
        "meta_mean_anomaly": 255.2219,
        "meta_ephemeris_type": 0,
        "meta_classification_type": "U",
        "meta_norad_cat_id": 34270,
        "meta_element_set_no": 999,
        "meta_rev_at_epoch": 89056,
        "meta_bstar": 0.00086693,
        "meta_mean_motion_dot": 4.71e-05,
        "meta_mean_motion_ddot": 0,
        "tle_line1": "1 34270U 93036LQ  25344.02422752  .00004710  00000+0  86693-3 0  9995",
        "tle_line2": "2 34270  74.0117 311.8597 0047781 105.4235 255.2219 14.65130160890560"
      },
      "geometry": {
        "type": "Point",
        "coordinates": [
          174.47469191601328,
          -67.38585804263325
        ]
      }
    },
    {
      "type": "Feature",
      "properties": {
        "norad_id": 34271,
        "name": "COSMOS 2251 DEB",
        "group": "cosmos-2251-debris",
        "lat": 24.80623294835883,
        "lon": 16.10364421459,
        "alt_km": 661.1262061337202,
        "timestamp": "2025-12-10T11:33:53.777875+00:00",
        "meta_object_name": "COSMOS 2251 DEB",
        "meta_object_id": "1993-036LR",
        "meta_epoch": "2025-12-10T01:38:08.268000",
        "meta_mean_motion": 14.70660652,
        "meta_eccentricity": 0.001915,
        "meta_inclination": 74.0199,
        "meta_ra_of_asc_node": 204.5181,
        "meta_arg_of_pericenter": 258.9597,
        "meta_mean_anomaly": 225.7781,
        "meta_ephemeris_type": 0,
        "meta_classification_type": "U",
        "meta_norad_cat_id": 34271,
        "meta_element_set_no": 999,
        "meta_rev_at_epoch": 88195,
        "meta_bstar": 0.0025313,
        "meta_mean_motion_dot": 0.00015458,
        "meta_mean_motion_ddot": 0,
        "tle_line1": "1 34271U 93036LR  25344.06815125  .00015458  00000+0  25313-2 0  9992",
        "tle_line2": "2 34271  74.0199 204.5181 0019150 258.9597 225.7781 14.70660652881951"
      },
      "geometry": {
        "type": "Point",
        "coordinates": [
          16.10364421459,
          24.80623294835883
        ]
      }
    },
    {
      "type": "Feature",
      "properties": {
        "norad_id": 34273,
        "name": "COSMOS 2251 DEB",
        "group": "cosmos-2251-debris",
        "lat": -65.4812865306278,
        "lon": -49.382170411977675,
        "alt_km": 687.8595104844017,
        "timestamp": "2025-12-10T11:33:53.777885+00:00",
        "meta_object_name": "COSMOS 2251 DEB",
        "meta_object_id": "1993-036LT",
        "meta_epoch": "2025-12-09T18:43:28.848000",
        "meta_mean_motion": 14.61179398,
        "meta_eccentricity": 0.0014216,
        "meta_inclination": 74.0358,
        "meta_ra_of_asc_node": 93.0859,
        "meta_arg_of_pericenter": 218.7421,
        "meta_mean_anomaly": 302.7844,
        "meta_ephemeris_type": 0,
        "meta_classification_type": "U",
        "meta_norad_cat_id": 34273,
        "meta_element_set_no": 999,
        "meta_rev_at_epoch": 88578,
        "meta_bstar": 0.0017333,
        "meta_mean_motion_dot": 8.529e-05,
        "meta_mean_motion_ddot": 0,
        "tle_line1": "1 34273U 93036LT  25343.78019500  .00008529  00000+0  17333-2 0  9999",
        "tle_line2": "2 34273  74.0358  93.0859 0014216 218.7421 302.7844 14.61179398885784"
      },
      "geometry": {
        "type": "Point",
        "coordinates": [
          -49.382170411977675,
          -65.4812865306278
        ]
      }
    },
    {
      "type": "Feature",
      "properties": {
        "norad_id": 34274,
        "name": "COSMOS 2251 DEB",
        "group": "cosmos-2251-debris",
        "lat": -52.37329926384799,
        "lon": 51.071857910152175,
        "alt_km": 682.2166933758208,
        "timestamp": "2025-12-10T11:33:53.777895+00:00",
        "meta_object_name": "COSMOS 2251 DEB",
        "meta_object_id": "1993-036LU",
        "meta_epoch": "2025-12-09T16:50:07.661184",
        "meta_mean_motion": 14.64722252,
        "meta_eccentricity": 0.0022207,
        "meta_inclination": 74.0045,
        "meta_ra_of_asc_node": 74.4212,
        "meta_arg_of_pericenter": 224.6523,
        "meta_mean_anomaly": 286.3362,
        "meta_ephemeris_type": 0,
        "meta_classification_type": "U",
        "meta_norad_cat_id": 34274,
        "meta_element_set_no": 999,
        "meta_rev_at_epoch": 88631,
        "meta_bstar": 0.0019497,
        "meta_mean_motion_dot": 0.00010406,
        "meta_mean_motion_ddot": 0,
        "tle_line1": "1 34274U 93036LU  25343.70147756  .00010406  00000+0  19497-2 0  9997",
        "tle_line2": "2 34274  74.0045  74.4212 0022207 224.6523 286.3362 14.64722252886310"
      },
      "geometry": {
        "type": "Point",
        "coordinates": [
          51.071857910152175,
          -52.37329926384799
        ]
      }
    },
    {
      "type": "Feature",
      "properties": {
        "norad_id": 34276,
        "name": "COSMOS 2251 DEB",
        "group": "cosmos-2251-debris",
        "lat": -53.36922825977121,
        "lon": 66.95044476663634,
        "alt_km": 702.6167879977729,
        "timestamp": "2025-12-10T11:33:53.777904+00:00",
        "meta_object_name": "COSMOS 2251 DEB",
        "meta_object_id": "1993-036LW",
        "meta_epoch": "2025-12-09T18:24:07.225056",
        "meta_mean_motion": 14.57195109,
        "meta_eccentricity": 0.0022636,
        "meta_inclination": 74.0237,
        "meta_ra_of_asc_node": 90.9731,
        "meta_arg_of_pericenter": 237.8065,
        "meta_mean_anomaly": 275.4954,
        "meta_ephemeris_type": 0,
        "meta_classification_type": "U",
        "meta_norad_cat_id": 34276,
        "meta_element_set_no": 999,
        "meta_rev_at_epoch": 88549,
        "meta_bstar": 0.0014219,
        "meta_mean_motion_dot": 6.419e-05,
        "meta_mean_motion_ddot": 0,
        "tle_line1": "1 34276U 93036LW  25343.76675029  .00006419  00000+0  14219-2 0  9990",
        "tle_line2": "2 34276  74.0237  90.9731 0022636 237.8065 275.4954 14.57195109885498"
      },
      "geometry": {
        "type": "Point",
        "coordinates": [
          66.95044476663634,
          -53.36922825977121
        ]
      }
    },
    {
      "type": "Feature",
      "properties": {
        "norad_id": 34297,
        "name": "COSMOS 2251 DEB",
        "group": "cosmos-2251-debris",
        "lat": 53.875213640654934,
        "lon": 85.30795527604901,
        "alt_km": 771.3127963651204,
        "timestamp": "2025-12-10T11:33:53.777914+00:00",
        "meta_object_name": "COSMOS 2251 DEB",
        "meta_object_id": "1993-036MT",
        "meta_epoch": "2025-12-09T20:05:25.142784",
        "meta_mean_motion": 14.36625433,
        "meta_eccentricity": 0.0017161,
        "meta_inclination": 74.0485,
        "meta_ra_of_asc_node": 289.5622,
        "meta_arg_of_pericenter": 358.7886,
        "meta_mean_anomaly": 30.4972,
        "meta_ephemeris_type": 0,
        "meta_classification_type": "U",
        "meta_norad_cat_id": 34297,
        "meta_element_set_no": 999,
        "meta_rev_at_epoch": 88023,
        "meta_bstar": 0.0002708,
        "meta_mean_motion_dot": 7.72e-06,
        "meta_mean_motion_ddot": 0,
        "tle_line1": "1 34297U 93036MT  25343.83709656  .00000772  00000+0  27080-3 0  9992",
        "tle_line2": "2 34297  74.0485 289.5622 0017161 358.7886  30.4972 14.36625433880233"
      },
      "geometry": {
        "type": "Point",
        "coordinates": [
          85.30795527604901,
          53.875213640654934
        ]
      }
    }
  ]
}